{
  "type": "FeatureCollection",
  "features": [
    {
      "type": "Feature",
      "properties": {
        "norad_id": 35025,
        "name": "COSMOS 2251 DEB",
        "group": "cosmos-2251-debris",
        "lat": -2.6821862447634657,
        "lon": -130.11279033058042,
        "alt_km": 699.5655899774929,
        "timestamp": "2025-12-19T18:58:41.981831+00:00",
        "meta_object_name": "COSMOS 2251 DEB",
        "meta_object_id": "1993-036AGN",
        "meta_epoch": "2025-12-19T03:28:23.797632",
        "meta_mean_motion": 14.72738749,
        "meta_eccentricity": 0.00854592,
        "meta_inclination": 73.9384,
        "meta_ra_of_asc_node": 50.379,
        "meta_arg_of_pericenter": 321.8323,
        "meta_mean_anomaly": 37.6815,
        "meta_ephemeris_type": 0,
        "meta_classification_type": "U",
        "meta_norad_cat_id": 35025,
        "meta_element_set_no": 999,
        "meta_rev_at_epoch": 88737,
        "meta_bstar": 0.0002959599,
        "meta_mean_motion_dot": 1.965e-05,
        "meta_mean_motion_ddot": 0,
        "tle_line1": "1 35025U 93036AGN 25353.14471988  .00001965  00000+0  29596-3 0  9990",
        "tle_line2": "2 35025  73.9384  50.3790 0085459 321.8323  37.6815 14.72738749887373"
      },
      "geometry": {
        "type": "Point",
        "coordinates": [
          -130.11279033058042,
          -2.6821862447634657
        ]
      }
    },
    {
      "type": "Feature",
      "properties": {
        "norad_id": 35026,
        "name": "COSMOS 2251 DEB",
        "group": "cosmos-2251-debris",
        "lat": -65.96821284593172,
        "lon": -94.41248567696913,
        "alt_km": 757.0153532174118,
        "timestamp": "2025-12-19T18:58:41.981841+00:00",
        "meta_object_name": "COSMOS 2251 DEB",
        "meta_object_id": "1993-036AGP",
        "meta_epoch": "2025-12-18T03:45:00.139104",
        "meta_mean_motion": 14.53626797,
        "meta_eccentricity": 0.0082422,
        "meta_inclination": 74.047,
        "meta_ra_of_asc_node": 308.5764,
        "meta_arg_of_pericenter": 60.5026,
        "meta_mean_anomaly": 318.4835,
        "meta_ephemeris_type": 0,
        "meta_classification_type": "U",
        "meta_norad_cat_id": 35026,
        "meta_element_set_no": 999,
        "meta_rev_at_epoch": 88222,
        "meta_bstar": 6.097601e-05,
        "meta_mean_motion_dot": 2.37e-06,
        "meta_mean_motion_ddot": 0,
        "tle_line1": "1 35026U 93036AGP 25352.15625161  .00000237  00000+0  60976-4 0  9994",
        "tle_line2": "2 35026  74.0470 308.5764 0082422  60.5026 318.4835 14.53626797882224"
      },
      "geometry": {
        "type": "Point",
        "coordinates": [
          -94.41248567696913,
          -65.96821284593172
        ]
      }
    },
    {
      "type": "Feature",
      "properties": {
        "norad_id": 35028,
        "name": "COSMOS 2251 DEB",
        "group": "cosmos-2251-debris",
        "lat": 58.66382446390275,
        "lon": 49.56279529095272,
        "alt_km": 695.5890440968915,
        "timestamp": "2025-12-19T18:58:41.981851+00:00",
        "meta_object_name": "COSMOS 2251 DEB",
        "meta_object_id": "1993-036AGR",
        "meta_epoch": "2025-12-18T03:11:52.081152",
        "meta_mean_motion": 14.56575396,
        "meta_eccentricity": 0.00826724,
        "meta_inclination": 74.0383,
        "meta_ra_of_asc_node": 260.7455,
        "meta_arg_of_pericenter": 32.9493,
        "meta_mean_anomaly": 35.4382,
        "meta_ephemeris_type": 0,
        "meta_classification_type": "U",
        "meta_norad_cat_id": 35028,
        "meta_element_set_no": 999,
        "meta_rev_at_epoch": 88364,
        "meta_bstar": 8.3392474e-05,
        "meta_mean_motion_dot": 3.58e-06,
        "meta_mean_motion_ddot": 0,
        "tle_line1": "1 35028U 93036AGR 25352.13324168  .00000358  00000+0  83392-4 0  9998",
        "tle_line2": "2 35028  74.0383 260.7455 0082672  32.9493  35.4382 14.56575396883644"
      },
      "geometry": {
        "type": "Point",
        "coordinates": [
          49.56279529095272,
          58.66382446390275
        ]
      }
    },
    {
      "type": "Feature",
      "properties": {
        "norad_id": 35031,
        "name": "COSMOS 2251 DEB",
        "group": "cosmos-2251-debris",
        "lat": -68.9042738523983,
        "lon": -161.61907565888674,
        "alt_km": 763.0622072521628,
        "timestamp": "2025-12-19T18:58:41.981861+00:00",
        "meta_object_name": "COSMOS 2251 DEB",
        "meta_object_id": "1993-036AGU",
        "meta_epoch": "2025-12-17T23:55:41.225088",
        "meta_mean_motion": 14.38299529,
        "meta_eccentricity": 0.00190755,
        "meta_inclination": 74.0382,
        "meta_ra_of_asc_node": 249.5774,
        "meta_arg_of_pericenter": 342.0186,
        "meta_mean_anomaly": 18.0291,
        "meta_ephemeris_type": 0,
        "meta_classification_type": "U",
        "meta_norad_cat_id": 35031,
        "meta_element_set_no": 999,
        "meta_rev_at_epoch": 65359,
        "meta_bstar": 0.00013785455,
        "meta_mean_motion_dot": 3.94e-06,
        "meta_mean_motion_ddot": 0,
        "tle_line1": "1 35031U 93036AGU 25351.99700492  .00000394  00000+0  13785-3 0  9991",
        "tle_line2": "2 35031  74.0382 249.5774 0019075 342.0186  18.0291 14.38299529653593"
      },
      "geometry": {
        "type": "Point",
        "coordinates": [
          -161.61907565888674,
          -68.9042738523983
        ]
      }
    },
    {
      "type": "Feature",
      "properties": {
        "norad_id": 35032,
        "name": "COSMOS 2251 DEB",
        "group": "cosmos-2251-debris",
        "lat": -48.06827469054304,
        "lon": -25.12063285172134,
        "alt_km": 716.1573916512989,
        "timestamp": "2025-12-19T18:58:41.981872+00:00",
        "meta_object_name": "COSMOS 2251 DEB",
        "meta_object_id": "1993-036AGV",
        "meta_epoch": "2025-12-18T10:59:13.334208",
        "meta_mean_motion": 14.58770343,
        "meta_eccentricity": 0.0067994,
        "meta_inclination": 73.8514,
        "meta_ra_of_asc_node": 356.2639,
        "meta_arg_of_pericenter": 206.6367,
        "meta_mean_anomaly": 304.5499,
        "meta_ephemeris_type": 0,
        "meta_classification_type": "U",
        "meta_norad_cat_id": 35032,
        "meta_element_set_no": 999,
        "meta_rev_at_epoch": 87757,
        "meta_bstar": 0.00069326657,
        "meta_mean_motion_dot": 3.313e-05,
        "meta_mean_motion_ddot": 0,
        "tle_line1": "1 35032U 93036AGV 25352.45779322  .00003313  00000+0  69327-3 0  9999",
        "tle_line2": "2 35032  73.8514 356.2639 0067994 206.6367 304.5499 14.58770343877572"
      },
      "geometry": {
        "type": "Point",
        "coordinates": [
          -25.12063285172134,
          -48.06827469054304
        ]
      }
    },
    {
      "type": "Feature",
      "properties": {
        "norad_id": 35033,
        "name": "COSMOS 2251 DEB",
        "group": "cosmos-2251-debris",
        "lat": 43.82559807370469,
        "lon": -32.650452192456754,
        "alt_km": 725.8364050042264,
        "timestamp": "2025-12-19T18:58:41.981881+00:00",
        "meta_object_name": "COSMOS 2251 DEB",
        "meta_object_id": "1993-036AGW",
        "meta_epoch": "2025-12-19T05:07:27.625152",
        "meta_mean_motion": 14.50959587,
        "meta_eccentricity": 0.00144803,
        "meta_inclination": 74.0251,
        "meta_ra_of_asc_node": 164.3945,
        "meta_arg_of_pericenter": 270.8601,
        "meta_mean_anomaly": 89.0901,
        "meta_ephemeris_type": 0,
        "meta_classification_type": "U",
        "meta_norad_cat_id": 35033,
        "meta_element_set_no": 999,
        "meta_rev_at_epoch": 66021,
        "meta_bstar": 0.00048139208,
        "meta_mean_motion_dot": 1.877e-05,
        "meta_mean_motion_ddot": 0,
        "tle_line1": "1 35033U 93036AGW 25353.21351418  .00001877  00000+0  48139-3 0  9998",
        "tle_line2": "2 35033  74.0251 164.3945 0014480 270.8601  89.0901 14.50959587660213"
      },
      "geometry": {
        "type": "Point",
        "coordinates": [
          -32.650452192456754,
          43.82559807370469
        ]
      }
    },
    {
      "type": "Feature",
      "properties": {
        "norad_id": 35038,
        "name": "COSMOS 2251 DEB",
        "group": "cosmos-2251-debris",
        "lat": 12.821126390126818,
        "lon": -153.79584171232307,
        "alt_km": 882.6145599931451,
        "timestamp": "2025-12-19T18:58:41.981892+00:00",
        "meta_object_name": "COSMOS 2251 DEB",
        "meta_object_id": "1993-036AHB",
        "meta_epoch": "2025-12-16T02:43:57.942048",
        "meta_mean_motion": 14.25166694,
        "meta_eccentricity": 0.01140711,
        "meta_inclination": 74.1077,
        "meta_ra_of_asc_node": 36.5236,
        "meta_arg_of_pericenter": 19.3791,
        "meta_mean_anomaly": 9.3469,
        "meta_ephemeris_type": 0,
        "meta_classification_type": "U",
        "meta_norad_cat_id": 35038,
        "meta_element_set_no": 999,
        "meta_rev_at_epoch": 85617,
        "meta_bstar": 0.00096319549,
        "meta_mean_motion_dot": 2.397e-05,
        "meta_mean_motion_ddot": 0,
        "tle_line1": "1 35038U 93036AHB 25350.11386507  .00002397  00000+0  96320-3 0  9999",
        "tle_line2": "2 35038  74.1077  36.5236 0114071  19.3791   9.3469 14.25166694856178"
      },
      "geometry": {
        "type": "Point",
        "coordinates": [
          -153.79584171232307,
          12.821126390126818
        ]
      }
    }
  ]
}